{
    "links": {
        "self": "http://www.neowsapp.com/rest/v1/neo/3647278?api_key=iIulBulltgU6a56xZRHN4H3l9WmuAYTsLGpBGhQ2"
    },
    "id": "3647278",
    "neo_reference_id": "3647278",
    "name": "(2013 RM21)",
    "designation": "2013 RM21",
    "nasa_jpl_url": "http://ssd.jpl.nasa.gov/sbdb.cgi?sstr=3647278",
    "absolute_magnitude_h": 23.6,
    "estimated_diameter": {
        "kilometers": {
            "estimated_diameter_min": 0.0506471459,
            "estimated_diameter_max": 0.1132504611
        },
        "meters": {
            "estimated_diameter_min": 50.6471458835,
            "estimated_diameter_max": 113.2504610618
        },
        "miles": {
            "estimated_diameter_min": 0.0314706677,
            "estimated_diameter_max": 0.0703705522
        },
        "feet": {
            "estimated_diameter_min": 166.1651821003,
            "estimated_diameter_max": 371.5566426699
        }
    },
    "is_potentially_hazardous_asteroid": false,
    "close_approach_data": [
        {
            "close_approach_date": "2010-09-11",
            "close_approach_date_full": "2010-Sep-11 06:44",
            "epoch_date_close_approach": 1284187440000,
            "relative_velocity": {
                "kilometers_per_second": "14.7594638545",
                "kilometers_per_hour": "53134.0698760974",
                "miles_per_hour": "33015.4446960673"
            },
            "miss_distance": {
                "astronomical": "0.4389156566",
                "lunar": "170.7381904174",
                "kilometers": "65660847.337011442",
                "miles": "40799758.6252722196"
            },
            "orbiting_body": "Earth"
        },
        {
            "close_approach_date": "2013-09-14",
            "close_approach_date_full": "2013-Sep-14 13:49",
            "epoch_date_close_approach": 1379166540000,
            "relative_velocity": {
                "kilometers_per_second": "14.0311984363",
                "kilometers_per_hour": "50512.3143706008",
                "miles_per_hour": "31386.3877821103"
            },
            "miss_distance": {
                "astronomical": "0.1153833484",
                "lunar": "44.8841225276",
                "kilometers": "17261103.154107908",
                "miles": "10725552.1495008104"
            },
            "orbiting_body": "Earth"
        },
        {
            "close_approach_date": "2014-02-03",
            "close_approach_date_full": "2014-Feb-03 19:04",
            "epoch_date_close_approach": 1391454240000,
            "relative_velocity": {
                "kilometers_per_second": "14.7244942051",
                "kilometers_per_hour": "53008.1791384244",
                "miles_per_hour": "32937.2210874282"
            },
            "miss_distance": {
                "astronomical": "0.465871728",
                "lunar": "181.224102192",
                "kilometers": "69693418.20201936",
                "miles": "43305481.968852768"
            },
            "orbiting_body": "Earth"
        },
        {
            "close_approach_date": "2016-09-06",
            "close_approach_date_full": "2016-Sep-06 19:51",
            "epoch_date_close_approach": 1473191460000,
            "relative_velocity": {
                "kilometers_per_second": "19.4119207749",
                "kilometers_per_hour": "69882.9147896987",
                "miles_per_hour": "43422.5255814103"
            },
            "miss_distance": {
                "astronomical": "0.4083660894",
                "lunar": "158.8544087766",
                "kilometers": "61090697.154469578",
                "miles": "37959998.9832450564"
            },
            "orbiting_body": "Earth"
        },
        {
            "close_approach_date": "2017-02-21",
            "close_approach_date_full": "2017-Feb-21 09:10",
            "epoch_date_close_approach": 1487668200000,
            "relative_velocity": {
                "kilometers_per_second": "13.8621516635",
                "kilometers_per_hour": "49903.7459887613",
                "miles_per_hour": "31008.2470561834"
            },
            "miss_distance": {
                "astronomical": "0.3726961585",
                "lunar": "144.9788056565",
                "kilometers": "55754551.468782395",
                "miles": "34644271.806471251"
            },
            "orbiting_body": "Earth"
        }
    ],
    "orbital_data": {
        "orbit_id": "10",
        "orbit_determination_date": "2017-04-06 08:44:49",
        "first_observation_date": "2013-09-04",
        "last_observation_date": "2013-09-24",
        "data_arc_in_days": 20,
        "observations_used": 48,
        "orbit_uncertainty": "8",
        "minimum_orbit_intersection": ".11332",
        "jupiter_tisserand_invariant": "4.906",
        "epoch_osculation": "2456542.5",
        "eccentricity": ".182637245331745",
        "semi_major_axis": "1.29032974889023",
        "inclination": "26.85343126375385",
        "ascending_node_longitude": "168.5487694763261",
        "orbital_period": "535.3644042894431",
        "perihelion_distance": "1.054667477983316",
        "perihelion_argument": "233.1251572854757",
        "aphelion_distance": "1.525992019797144",
        "perihelion_time": "2456603.362456227077",
        "mean_anomaly": "319.0736999580161",
        "mean_motion": ".6724391780918014",
        "equinox": "J2000",
        "orbit_class": {
            "orbit_class_type": "AMO",
            "orbit_class_description": "Near-Earth asteroid orbits similar to that of 1221 Amor",
            "orbit_class_range": "1.017 AU < q (perihelion) < 1.3 AU"
        }
    },
    "is_sentry_object": false
}